OBJECT_NAME,OBJECT_ID,EPOCH,MEAN_MOTION,ECCENTRICITY,INCLINATION,RA_OF_ASC_NODE,ARG_OF_PERICENTER,MEAN_ANOMALY,EPHEMERIS_TYPE,CLASSIFICATION_TYPE,NORAD_CAT_ID,ELEMENT_SET_NO,REV_AT_EPOCH,BSTAR,MEAN_MOTION_DOT,MEAN_MOTION_DDOT
GEOSCAN 3 (RS92S3),2025-155T,2026-07-01T14:15:04.054752,15.35881434,.00083074,97.4545,152.6432,121.8654,238.3399,0,U,64893,999,8306,.62929509E-3,.21953E-3,0
INNOSAT 3 (RS92S0),2025-155U,2026-07-01T15:10:44.779008,15.44878424,.00080812,97.4491,154.4843,119.6557,240.5497,0,U,64894,999,8319,.9785882E-3,.46118E-3,0
KNACKSAT-2,1998-067XZ,2026-07-01T15:07:42.976992,15.61241236,.00084328,51.6257,221.7605,278.9174,81.0864,0,U,67683,999,2253,.58880319E-3,.50776E-3,0
