GEOSCAN-3 (RS92S3)
1 64893U 25155T   26182.59379693  .00021953  00000-0  62930-3 0  9991
2 64893  97.4545 152.6432 0008307 121.8654 238.3399 15.35881434 83060
INNOSAT3 (RS92S0)
1 64894U 25155U   26182.63246272  .00046118  00000-0  97859-3 0  9991
2 64894  97.4491 154.4843 0008081 119.6557 240.5497 15.44878424 83196
KNACKSAT-2
1 67683U 98067XZ  26182.63035853  .00050776  00000-0  58880-3 0  9999
2 67683  51.6257 221.7605 0008433 278.9174  81.0864 15.61241236 22537
